IRIDIUM 150             
1 43257U 18030J   25138.88624407  .00000075  00000+0  19566-4 0  9993
2 43257  86.3942  95.3154 0002581  87.8065 272.3426 14.34217406373643
IRIDIUM 143             
1 43258U 18030K   25139.42536479  .00000063  00000+0  15565-4 0  9998
2 43258  86.3946  95.1674 0002771  86.2077 273.9436 14.34217962373689
IRIDIUM 161             
1 43478U 18047C   25139.36982616  .00000435  00000+0  12330-3 0  9990
2 43478  86.4490 252.9800 0002089  95.0845 265.0594 14.43284447368330
IRIDIUM 152             
1 43479U 18047D   25139.39808124  .00000059  00000+0  13941-4 0  9997
2 43479  86.3964 252.8285 0002157  98.7446 261.3995 14.34217976366059
IRIDIUM 147             
1 43480U 18047E   25139.40442409  .00000028  00000+0  29587-5 0  9991
2 43480  86.3966 252.8241 0002093  91.5977 268.5458 14.34217793366043
IRIDIUM 110             
1 43481U 18047F   25138.85261693  .00000103  00000+0  29592-4 0  9993
2 43481  86.3968 253.1363 0001805  99.1228 261.0172 14.34218388365959
IRIDIUM 162             
1 43482U 18047G   25138.80887943  .00000475  00000+0  13511-3 0  9996
2 43482  86.4488 253.1100 0002077 101.5915 258.5519 14.43281351368241
IRIDIUM 160             
1 43569U 18061A   25139.28683395  .00000041  00000+0  74874-5 0  9996
2 43569  86.4007 221.3442 0002038  95.7211 264.4217 14.34217975356913
